start=new Date('2023-02-15T00:00:00.000Z').valueOf();
sats=[{"REF_FRAME":"TEME","OBJECT_NAME":"STARLINK-2463","CENTER_NAME":"EARTH","TLE_LINE1":"1 48122U 21027AG  23045.70077867 -.00000917  00000-0 -42618-4 0  9999","CLASSIFICATION_TYPE":"U","PERIOD":"95.592","OBJECT_TYPE":"PAYLOAD","MEAN_MOTION_DDOT":"0.0000000000000","DECAY_DATE":null,"MEAN_ELEMENT_THEORY":"SGP4","COUNTRY_CODE":"US","PERIAPSIS":"545.519","TIME_SYSTEM":"UTC","INCLINATION":"53.0565","EPHEMERIS_TYPE":"0","APOAPSIS":"548.866","MEAN_ANOMALY":"286.3287","SEMIMAJOR_AXIS":"6925.327","TLE_LINE2":"2 48122  53.0565 139.9268 0002417  73.7968 286.3287 15.06406916103979","REV_AT_EPOCH":"10397","EPOCH":"2023-02-14T16:49:07.277088","NORAD_CAT_ID":"48122","OBJECT_ID":"2021-027AG","MEAN_MOTION_DOT":"-0.00000917","LAUNCH_DATE":"2021-04-07","MEAN_MOTION":"15.06406916","GP_ID":"225431234","RCS_SIZE":"LARGE","SITE":"AFETR","RA_OF_ASC_NODE":"139.9268","FILE":"3792084","BSTAR":"-0.00004261800000","ELEMENT_SET_NO":"999","ARG_OF_PERICENTER":"73.7968","ECCENTRICITY":"0.00024170"},{"ECCENTRICITY":"0.00015190","ARG_OF_PERICENTER":"74.3489","ELEMENT_SET_NO":"999","BSTAR":"0.00016934000000","FILE":"3792084","RA_OF_ASC_NODE":"135.5159","SITE":"AFETR","RCS_SIZE":"LARGE","GP_ID":"225431986","MEAN_MOTION":"15.06401697","LAUNCH_DATE":"2021-04-07","MEAN_MOTION_DOT":"0.00002242","OBJECT_ID":"2021-027AH","EPOCH":"2023-02-14T13:51:58.819104","NORAD_CAT_ID":"48123","TLE_LINE2":"2 48123  53.0499 135.5159 0001519  74.3489 285.7667 15.06401697104027","REV_AT_EPOCH":"10402","SEMIMAJOR_AXIS":"6925.343","MEAN_ANOMALY":"285.7667","APOAPSIS":"548.260","EPHEMERIS_TYPE":"0","INCLINATION":"53.0499","TIME_SYSTEM":"UTC","PERIAPSIS":"546.156","COUNTRY_CODE":"US","MEAN_ELEMENT_THEORY":"SGP4","DECAY_DATE":null,"OBJECT_TYPE":"PAYLOAD","MEAN_MOTION_DDOT":"0.0000000000000","PERIOD":"95.592","CLASSIFICATION_TYPE":"U","TLE_LINE1":"1 48123U 21027AH  23045.57776411  .00002242  00000-0  16934-3 0  9998","CENTER_NAME":"EARTH","OBJECT_NAME":"STARLINK-2464","REF_FRAME":"TEME"},{"ARG_OF_PERICENTER":"70.3348","ELEMENT_SET_NO":"999","ECCENTRICITY":"0.00012090","FILE":"3791633","BSTAR":"0.00031782000000","SITE":"AFETR","RA_OF_ASC_NODE":"145.5099","LAUNCH_DATE":"2021-04-07","GP_ID":"225401260","RCS_SIZE":"LARGE","MEAN_MOTION":"15.06410098","OBJECT_ID":"2021-027AJ","MEAN_MOTION_DOT":"0.00004457","EPOCH":"2023-02-14T13:50:38.875776","NORAD_CAT_ID":"48124","TLE_LINE2":"2 48124  53.0545 145.5099 0001209  70.3348 289.7772 15.06410098103485","REV_AT_EPOCH":"10348","MEAN_ANOMALY":"289.7772","APOAPSIS":"548.020","SEMIMAJOR_AXIS":"6925.318","EPHEMERIS_TYPE":"0","INCLINATION":"53.0545","PERIAPSIS":"546.345","COUNTRY_CODE":"US","TIME_SYSTEM":"UTC","DECAY_DATE":null,"MEAN_ELEMENT_THEORY":"SGP4","PERIOD":"95.591","MEAN_MOTION_DDOT":"0.0000000000000","OBJECT_TYPE":"PAYLOAD","CLASSIFICATION_TYPE":"U","TLE_LINE1":"1 48124U 21027AJ  23045.57683884  .00004457  00000-0  31782-3 0  9998","REF_FRAME":"TEME","OBJECT_NAME":"STARLINK-2465","CENTER_NAME":"EARTH"},{"RA_OF_ASC_NODE":"154.7990","SITE":"AFETR","LAUNCH_DATE":"2021-04-07","GP_ID":"225431484","RCS_SIZE":"LARGE","MEAN_MOTION":"15.06424722","ARG_OF_PERICENTER":"66.8674","ELEMENT_SET_NO":"999","ECCENTRICITY":"0.00018540","FILE":"3792084","BSTAR":"0.00218520000000","REV_AT_EPOCH":"10377","TLE_LINE2":"2 48125  53.0510 154.7990 0001854  66.8674 293.2510 15.06424722103779","MEAN_ANOMALY":"293.2510","APOAPSIS":"548.422","SEMIMAJOR_AXIS":"6925.273","OBJECT_ID":"2021-027AK","MEAN_MOTION_DOT":"0.00032439","EPOCH":"2023-02-14T18:57:12.891456","NORAD_CAT_ID":"48125","PERIAPSIS":"545.854","COUNTRY_CODE":"US","TIME_SYSTEM":"UTC","EPHEMERIS_TYPE":"0","INCLINATION":"53.0510","CLASSIFICATION_TYPE":"U","TLE_LINE1":"1 48125U 21027AK  23045.78973254  .00032439  00000-0  21852-2 0  9992","REF_FRAME":"TEME","CENTER_NAME":"EARTH","OBJECT_NAME":"STARLINK-2466","DECAY_DATE":null,"MEAN_ELEMENT_THEORY":"SGP4","PERIOD":"95.591","OBJECT_TYPE":"PAYLOAD","MEAN_MOTION_DDOT":"0.0000000000000"},{"RA_OF_ASC_NODE":"134.7673","SITE":"AFETR","LAUNCH_DATE":"2021-04-07","MEAN_MOTION":"15.06435033","GP_ID":"225431734","RCS_SIZE":"LARGE","ELEMENT_SET_NO":"999","ARG_OF_PERICENTER":"68.4475","ECCENTRICITY":"0.00013580","FILE":"3792084","BSTAR":"0.00307800000000","REV_AT_EPOCH":"10405","TLE_LINE2":"2 48126  53.0509 134.7673 0001358  68.4475 291.6659 15.06435033104055","APOAPSIS":"548.047","MEAN_ANOMALY":"291.6659","SEMIMAJOR_AXIS":"6925.241","OBJECT_ID":"2021-027AL","MEAN_MOTION_DOT":"0.00045908","NORAD_CAT_ID":"48126","EPOCH":"2023-02-14T17:50:49.515360","COUNTRY_CODE":"US","PERIAPSIS":"546.166","TIME_SYSTEM":"UTC","EPHEMERIS_TYPE":"0","INCLINATION":"53.0509","TLE_LINE1":"1 48126U 21027AL  23045.74362865  .00045908  00000-0  30780-2 0  9994","CLASSIFICATION_TYPE":"U","CENTER_NAME":"EARTH","REF_FRAME":"TEME","OBJECT_NAME":"STARLINK-2467","DECAY_DATE":null,"MEAN_ELEMENT_THEORY":"SGP4","PERIOD":"95.590","MEAN_MOTION_DDOT":"0.0000000000000","OBJECT_TYPE":"PAYLOAD"},{"COUNTRY_CODE":"US","PERIAPSIS":"546.215","TIME_SYSTEM":"UTC","INCLINATION":"53.0517","EPHEMERIS_TYPE":"0","REF_FRAME":"TEME","OBJECT_NAME":"STARLINK-2468","CENTER_NAME":"EARTH","TLE_LINE1":"1 48127U 21027AM  23045.73440872  .00004235  00000-0  30289-3 0  9992","CLASSIFICATION_TYPE":"U","PERIOD":"95.591","MEAN_MOTION_DDOT":"0.0000000000000","OBJECT_TYPE":"PAYLOAD","DECAY_DATE":null,"MEAN_ELEMENT_THEORY":"SGP4","LAUNCH_DATE":"2021-04-07","MEAN_MOTION":"15.06414363","RCS_SIZE":"LARGE","GP_ID":"225432486","RA_OF_ASC_NODE":"154.8095","SITE":"AFETR","FILE":"3792084","BSTAR":"0.00030289000000","ELEMENT_SET_NO":"999","ARG_OF_PERICENTER":"68.0660","ECCENTRICITY":"0.00013780","APOAPSIS":"548.124","MEAN_ANOMALY":"292.0475","SEMIMAJOR_AXIS":"6925.305","REV_AT_EPOCH":"10376","TLE_LINE2":"2 48127  53.0517 154.8095 0001378  68.0660 292.0475 15.06414363103761","NORAD_CAT_ID":"48127","EPOCH":"2023-02-14T17:37:32.913408","MEAN_MOTION_DOT":"0.00004235","OBJECT_ID":"2021-027AM"},{"COUNTRY_CODE":"US","PERIAPSIS":"546.085","TIME_SYSTEM":"UTC","EPHEMERIS_TYPE":"0","INCLINATION":"53.0528","TLE_LINE1":"1 48128U 21027AN  23045.51603529  .00004099  00000-0  29389-3 0  9996","CLASSIFICATION_TYPE":"U","OBJECT_NAME":"STARLINK-2469","CENTER_NAME":"EARTH","REF_FRAME":"TEME","DECAY_DATE":null,"MEAN_ELEMENT_THEORY":"SGP4","PERIOD":"95.592","OBJECT_TYPE":"PAYLOAD","MEAN_MOTION_DDOT":"0.0000000000000","RA_OF_ASC_NODE":"85.8704","SITE":"AFETR","LAUNCH_DATE":"2021-04-07","MEAN_MOTION":"15.06406640","GP_ID":"225401444","RCS_SIZE":"LARGE","ELEMENT_SET_NO":"999","ARG_OF_PERICENTER":"86.8172","ECCENTRICITY":"0.00016000","FILE":"3791668","BSTAR":"0.00029389000000","TLE_LINE2":"2 48128  53.0528  85.8704 0001600  86.8172 273.3000 15.06406640104315","REV_AT_EPOCH":"10431","APOAPSIS":"548.301","MEAN_ANOMALY":"273.3000","SEMIMAJOR_AXIS":"6925.328","MEAN_MOTION_DOT":"0.00004099","OBJECT_ID":"2021-027AN","EPOCH":"2023-02-14T12:23:05.449056","NORAD_CAT_ID":"48128"},{"ARG_OF_PERICENTER":"54.6838","ELEMENT_SET_NO":"999","ECCENTRICITY":"0.00008610","FILE":"3791648","BSTAR":"0.00013550000000","RA_OF_ASC_NODE":"155.4326","SITE":"AFETR","LAUNCH_DATE":"2021-04-07","GP_ID":"225401986","RCS_SIZE":"LARGE","MEAN_MOTION":"15.06389165","OBJECT_ID":"2021-027AP","MEAN_MOTION_DOT":"0.00001737","EPOCH":"2023-02-14T14:15:52.011936","NORAD_CAT_ID":"48129","TLE_LINE2":"2 48129  53.0565 155.4326 0000861  54.6838 305.4231 15.06389165103348","REV_AT_EPOCH":"10334","MEAN_ANOMALY":"305.4231","APOAPSIS":"547.843","SEMIMAJOR_AXIS":"6925.382","EPHEMERIS_TYPE":"0","INCLINATION":"53.0565","PERIAPSIS":"546.650","COUNTRY_CODE":"US","TIME_SYSTEM":"UTC","DECAY_DATE":null,"MEAN_ELEMENT_THEORY":"SGP4","PERIOD":"95.593","MEAN_MOTION_DDOT":"0.0000000000000","OBJECT_TYPE":"PAYLOAD","CLASSIFICATION_TYPE":"U","TLE_LINE1":"1 48129U 21027AP  23045.59435199  .00001737  00000-0  13550-3 0  9990","REF_FRAME":"TEME","OBJECT_NAME":"STARLINK-2471","CENTER_NAME":"EARTH"},{"COUNTRY_CODE":"US","PERIAPSIS":"546.251","TIME_SYSTEM":"UTC","EPHEMERIS_TYPE":"0","INCLINATION":"53.0511","TLE_LINE1":"1 48130U 21027AQ  23045.78276519  .00019700  00000-0  13368-2 0  9997","CLASSIFICATION_TYPE":"U","CENTER_NAME":"EARTH","OBJECT_NAME":"STARLINK-2472","REF_FRAME":"TEME","DECAY_DATE":null,"MEAN_ELEMENT_THEORY":"SGP4","PERIOD":"95.591","MEAN_MOTION_DDOT":"0.0000000000000","OBJECT_TYPE":"PAYLOAD","RA_OF_ASC_NODE":"159.5877","SITE":"AFETR","LAUNCH_DATE":"2021-04-07","MEAN_MOTION":"15.06425592","RCS_SIZE":"LARGE","GP_ID":"225431235","ELEMENT_SET_NO":"999","ARG_OF_PERICENTER":"84.2724","ECCENTRICITY":"0.00012770","FILE":"3792084","BSTAR":"0.00133680000000","TLE_LINE2":"2 48130  53.0511 159.5877 0001277  84.2724 275.8411 15.06425592103707","REV_AT_EPOCH":"10370","APOAPSIS":"548.019","MEAN_ANOMALY":"275.8411","SEMIMAJOR_AXIS":"6925.270","MEAN_MOTION_DOT":"0.00019700","OBJECT_ID":"2021-027AQ","EPOCH":"2023-02-14T18:47:10.912416","NORAD_CAT_ID":"48130"},{"TIME_SYSTEM":"UTC","PERIAPSIS":"546.306","COUNTRY_CODE":"US","EPHEMERIS_TYPE":"0","INCLINATION":"53.0531","CLASSIFICATION_TYPE":"U","TLE_LINE1":"1 48131U 21027AR  23045.53721850  .00001064  00000-0  90283-4 0  9991","REF_FRAME":"TEME","CENTER_NAME":"EARTH","OBJECT_NAME":"STARLINK-2473","MEAN_ELEMENT_THEORY":"SGP4","DECAY_DATE":null,"MEAN_MOTION_DDOT":"0.0000000000000","OBJECT_TYPE":"PAYLOAD","PERIOD":"95.592","RA_OF_ASC_NODE":"135.6877","SITE":"AFETR","RCS_SIZE":"LARGE","GP_ID":"225402091","MEAN_MOTION":"15.06398826","LAUNCH_DATE":"2021-04-07","ECCENTRICITY":"0.00013160","ARG_OF_PERICENTER":"78.9004","ELEMENT_SET_NO":"999","BSTAR":"0.00009028300000","FILE":"3791654","TLE_LINE2":"2 48131  53.0531 135.6877 0001316  78.9004 281.2133 15.06398826103611","REV_AT_EPOCH":"10361","SEMIMAJOR_AXIS":"6925.352","MEAN_ANOMALY":"281.2133","APOAPSIS":"548.129","OBJECT_ID":"2021-027AR","MEAN_MOTION_DOT":"0.00001064","EPOCH":"2023-02-14T12:53:35.678400","NORAD_CAT_ID":"48131"}];
